NAVSTAR 61 (USA 199)    
1 32384U 07062A   26170.78295955 -.00000058  00000+0  00000+0 0  9993
2 32384  55.0295 274.0483 0035782 165.7534   8.6688  2.00560219135563
NAVSTAR 62 (USA 201)    
1 32711U 08012A   26171.12746890  .00000064  00000+0  00000+0 0  9997
2 32711  54.4978 149.8072 0211322 247.8806 109.8414  2.00572494133816
NAVSTAR 63 (USA 203)    
1 34661U 09014A   26169.14250307  .00000034  00000+0  00000+0 0  9995
2 34661  54.4832 210.6168 0144194  61.5698   4.4836  2.00552341126309
NAVSTAR 64 (USA 206)    
1 35752U 09043A   26170.63033433 -.00000093  00000+0  00000+0 0  9990
2 35752  56.2119  27.3556 0053757  83.3060 287.3304  2.00554110123419
NAVSTAR 65 (USA 213)    
1 36585U 10022A   26170.94663939  .00000030  00000+0  00000+0 0  9998
2 36585  54.2700 208.4508 0126393  66.1309 291.6490  2.00562559117647
NAVSTAR 66 (USA 232)    
1 37753U 11036A   26171.34741987 -.00000091  00000+0  00000+0 0  9995
2 37753  56.5635 331.8965 0141923  62.5964 291.1694  2.00562222109333
NAVSTAR 67 (USA 239)    
1 38833U 12053A   26171.30759611  .00000059  00000+0  00000+0 0  9997
2 38833  53.5866 143.4715 0180483  65.8000 296.0463  2.00567513 99500
NAVSTAR 68 (USA 242)    
1 39166U 13023A   26170.67606648 -.00000052  00000+0  00000+0 0  9999
2 39166  54.5020 268.8722 0141504  51.0528 310.2374  2.00563426 95938
NAVSTAR 69 (USA 248)    
1 39533U 14008A   26171.17631964  .00000063  00000+0  00000+0 0  9997
2 39533  53.6552 149.1977 0084223 231.3206 127.9004  2.00559961 89743
NAVSTAR 70 (USA 251)    
1 39741U 14026A   26170.95326937 -.00000090  00000+0  00000+0 0  9995
2 39741  56.4969 331.4097 0038155 326.5311  33.2215  2.00560761 88598
NAVSTAR 71 (USA 256)    
1 40105U 14045A   26171.04506235 -.00000025  00000+0  00000+0 0  9992
2 40105  55.3550  88.3511 0033436 118.2269 242.1176  2.00558575 86137
NAVSTAR 72 (USA 258)    
1 40294U 14068A   26170.91475241 -.00000091  00000+0  00000+0 0  9996
2 40294  56.9895  30.8495 0067113  70.6969 290.0787  2.00576333 85260
NAVSTAR 73 (USA 260)    
1 40534U 15013A   26171.05406355  .00000035  00000+0  00000+0 0  9997
2 40534  53.1677 204.0589 0109601  40.1558 320.7059  2.00551222 81885
